{"type": "FeatureCollection", "features": [ {"type": "Feature", "properties": {"norad_id": 32203, "name": "FENGYUN 1C DEB", "group": "fengyun-1c-debris", "lat": -25.37073232521771, "lon": -119.33910895957122, "alt_km": 499.34704149992376, "timestamp": "2025-12-11T18:59:46.359501+00:00", "meta": {"OBJECT_NAME": "FENGYUN 1C DEB", "OBJECT_ID": "1999-025CUZ", "EPOCH": "2025-12-10T22:50:33.664992", "MEAN_MOTION": 15.40544277, "ECCENTRICITY": 0.0145399, "INCLINATION": 97.016, "RA_OF_ASC_NODE": 236.5065, "ARG_OF_PERICENTER": 98.222, "MEAN_ANOMALY": 263.5546, "EPHEMERIS_TYPE": 0, "CLASSIFICATION_TYPE": "U", "NORAD_CAT_ID": 32203, "ELEMENT_SET_NO": 999, "REV_AT_EPOCH": 75070, "BSTAR": 0.0010117, "MEAN_MOTION_DOT": 0.00060334, "MEAN_MOTION_DDOT": 0}, "tle": {"line1": "1 32203U 99025CUZ 25344.95177853  .00060334  00000+0  10117-2 0  9995", "line2": "2 32203  97.0160 236.5065 0145399  98.2220 263.5546 15.40544277750705"}}, "geometry": {"type": "Point", "coordinates": [-119.33910895957122, -25.37073232521771]}}, {"type": "Feature", "properties": {"norad_id": 32205, "name": "FENGYUN 1C DEB", "group": "fengyun-1c-debris", "lat": -46.29496788534167, "lon": 160.52366977573706, "alt_km": 850.0658624044445, "timestamp": "2025-12-11T18:59:46.359511+00:00", "meta": {"OBJECT_NAME": "FENGYUN 1C DEB", "OBJECT_ID": "1999-025CVB", "EPOCH": "2025-12-10T12:04:01.932960", "MEAN_MOTION": 14.13909037, "ECCENTRICITY": 0.00101139, "INCLINATION": 98.6781, "RA_OF_ASC_NODE": 348.4675, "ARG_OF_PERICENTER": 299.1004, "MEAN_ANOMALY": 211.9711, "EPHEMERIS_TYPE": 0, "CLASSIFICATION_TYPE": "U", "NORAD_CAT_ID": 32205, "ELEMENT_SET_NO": 999, "REV_AT_EPOCH": 94466, "BSTAR": 0.00025240574, "MEAN_MOTION_DOT": 4.36e-06, "MEAN_MOTION_DDOT": 0}, "tle": {"line1": "1 32205U 99025CVB 25344.50280015  .00000436  00000+0  25241-3 0  9995", "line2": "2 32205  98.6781 348.4675 0010113 299.1004 211.9711 14.13909037944669"}}, "geometry": {"type": "Point", "coordinates": [160.52366977573706, -46.29496788534167]}}, {"type": "Feature", "properties": {"norad_id": 32207, "name": "FENGYUN 1C DEB", "group": "fengyun-1c-debris", "lat": -51.02107623769732, "lon": 112.17078717562246, "alt_km": 768.6878682639835, "timestamp": "2025-12-11T18:59:46.359522+00:00", "meta": {"OBJECT_NAME": "FENGYUN 1C DEB", "OBJECT_ID": "1999-025CVD", "EPOCH": "2025-12-10T16:03:18.322848", "MEAN_MOTION": 14.39564129, "ECCENTRICITY": 0.00851867, "INCLINATION": 99.8553, "RA_OF_ASC_NODE": 303.2872, "ARG_OF_PERICENTER": 142.9537, "MEAN_ANOMALY": 33.7784, "EPHEMERIS_TYPE": 0, "CLASSIFICATION_TYPE": "U", "NORAD_CAT_ID": 32207, "ELEMENT_SET_NO": 999, "REV_AT_EPOCH": 64277, "BSTAR": 0.00050979043, "MEAN_MOTION_DOT": 1.603e-05, "MEAN_MOTION_DDOT": 0}, "tle": {"line1": "1 32207U 99025CVD 25344.66896207  .00001603  00000+0  50979-3 0  9993", "line2": "2 32207  99.8553 303.2872 0085186 142.9537  33.7784 14.39564129642771"}}, "geometry": {"type": "Point", "coordinates": [112.17078717562246, -51.02107623769732]}}, {"type": "Feature", "properties": {"norad_id": 32209, "name": "FENGYUN 1C DEB", "group": "fengyun-1c-debris", "lat": 59.04616030293813, "lon": -82.80561460087, "alt_km": 865.6283522733365, "timestamp": "2025-12-11T18:59:46.359532+00:00", "meta": {"OBJECT_NAME": "FENGYUN 1C DEB", "OBJECT_ID": "1999-025CVF", "EPOCH": "2025-12-11T02:40:28.814304", "MEAN_MOTION": 13.4716101, "ECCENTRICITY": 0.03331235, "INCLINATION": 99.4206, "RA_OF_ASC_NODE": 292.6227, "ARG_OF_PERICENTER": 29.3187, "MEAN_ANOMALY": 332.6194, "EPHEMERIS_TYPE": 0, "CLASSIFICATION_TYPE": "U", "NORAD_CAT_ID": 32209, "ELEMENT_SET_NO": 999, "REV_AT_EPOCH": 89954, "BSTAR": 0.0038267004, "MEAN_MOTION_DOT": 3.226e-05, "MEAN_MOTION_DDOT": 0}, "tle": {"line1": "1 32209U 99025CVF 25345.11144461  .00003226  00000+0  38267-2 0  9992", "line2": "2 32209  99.4206 292.6227 0333123  29.3187 332.6194 13.47161010899540"}}, "geometry": {"type": "Point", "coordinates": [-82.80561460087, 59.04616030293813]}}, {"type": "Feature", "properties": {"norad_id": 32212, "name": "FENGYUN 1C DEB", "group": "fengyun-1c-debris", "lat": -67.38631682452065, "lon": 106.27472563317781, "alt_km": 850.1021028769646, "timestamp": "2025-12-11T18:59:46.359542+00:00", "meta": {"OBJECT_NAME": "FENGYUN 1C DEB", "OBJECT_ID": "1999-025CVJ", "EPOCH": "2025-12-07T05:25:21.707616", "MEAN_MOTION": 14.4029402, "ECCENTRICITY": 0.01380025, "INCLINATION": 99.5739, "RA_OF_ASC_NODE": 77.269, "ARG_OF_PERICENTER": 94.4688, "MEAN_ANOMALY": 297.2425, "EPHEMERIS_TYPE": 0, "CLASSIFICATION_TYPE": "U", "NORAD_CAT_ID": 32212, "ELEMENT_SET_NO": 999, "REV_AT_EPOCH": 95982, "BSTAR": 0.00083867725, "MEAN_MOTION_DOT": 2.917e-05, "MEAN_MOTION_DDOT": 0}, "tle": {"line1": "1 32212U 99025CVJ 25341.22594569  .00002917  00000+0  83868-3 0  9996", "line2": "2 32212  99.5739  77.2690 0138002  94.4688 297.2425 14.40294020959828"}}, "geometry": {"type": "Point", "coordinates": [106.27472563317781, -67.38631682452065]}}, {"type": "Feature", "properties": {"norad_id": 32214, "name": "FENGYUN 1C DEB", "group": "fengyun-1c-debris", "lat": -67.1556894366544, "lon": 33.64301164450048, "alt_km": 980.2845131082377, "timestamp": "2025-12-11T18:59:46.359552+00:00", "meta": {"OBJECT_NAME": "FENGYUN 1C DEB", "OBJECT_ID": "1999-025CVL", "EPOCH": "2025-12-10T20:00:30.384000", "MEAN_MOTION": 13.90504026, "ECCENTRICITY": 0.01885107, "INCLINATION": 99.0428, "RA_OF_ASC_NODE": 10.4997, "ARG_OF_PERICENTER": 44.361, "MEAN_ANOMALY": 136.664, "EPHEMERIS_TYPE": 0, "CLASSIFICATION_TYPE": "U", "NORAD_CAT_ID": 32214, "ELEMENT_SET_NO": 999, "REV_AT_EPOCH": 62395, "BSTAR": 0.0065203149, "MEAN_MOTION_DOT": 9.331e-05, "MEAN_MOTION_DDOT": 0}, "tle": {"line1": "1 32214U 99025CVL 25344.83368500  .00009331  00000+0  65203-2 0  9991", "line2": "2 32214  99.0428  10.4997 0188510  44.3610 136.6640 13.90504026623958"}}, "geometry": {"type": "Point", "coordinates": [33.64301164450048, -67.1556894366544]}}, {"type": "Feature", "properties": {"norad_id": 32218, "name": "FENGYUN 1C DEB", "group": "fengyun-1c-debris", "lat": -57.23269202482925, "lon": -166.45174684324112, "alt_km": 742.6270531351729, "timestamp": "2025-12-11T18:59:46.359562+00:00", "meta": {"OBJECT_NAME": "FENGYUN 1C DEB", "OBJECT_ID": "1999-025CVQ", "EPOCH": "2025-12-10T12:10:15.201696", "MEAN_MOTION": 14.55461133, "ECCENTRICITY": 0.00632054, "INCLINATION": 98.8121, "RA_OF_ASC_NODE": 178.2476, "ARG_OF_PERICENTER": 74.2144, "MEAN_ANOMALY": 342.2271, "EPHEMERIS_TYPE": 0, "CLASSIFICATION_TYPE": "U", "NORAD_CAT_ID": 32218, "ELEMENT_SET_NO": 999, "REV_AT_EPOCH": 96200, "BSTAR": 0.0011330497, "MEAN_MOTION_DOT": 5.012e-05, "MEAN_MOTION_DDOT": 0}, "tle": {"line1": "1 32218U 99025CVQ 25344.50712039  .00005012  00000+0  11330-2 0  9993", "line2": "2 32218  98.8121 178.2476 0063205  74.2144 342.2271 14.55461133962001"}}, "geometry": {"type": "Point", "coordinates": [-166.45174684324112, -57.23269202482925]}}, {"type": "Feature", "properties": {"norad_id": 32221, "name": "FENGYUN 1C DEB", "group": "fengyun-1c-debris", "lat": -0.7839504300652759, "lon": -44.43551705393854, "alt_km": 612.0293358188756, "timestamp": "2025-12-11T18:59:46.359572+00:00", "meta": {"OBJECT_NAME": "FENGYUN 1C DEB", "OBJECT_ID": "1999-025CVT", "EPOCH": "2025-12-11T05:00:29.487168", "MEAN_MOTION": 14.58686157, "ECCENTRICITY": 0.01467422, "INCLINATION": 98.5656, "RA_OF_ASC_NODE": 135.0818, "ARG_OF_PERICENTER": 150.4264, "MEAN_ANOMALY": 210.5335, "EPHEMERIS_TYPE": 0, "CLASSIFICATION_TYPE": "U", "NORAD_CAT_ID": 32221, "ELEMENT_SET_NO": 999, "REV_AT_EPOCH": 97175, "BSTAR": 0.00065062495, "MEAN_MOTION_DOT": 3.467e-05, "MEAN_MOTION_DDOT": 0}, "tle": {"line1": "1 32221U 99025CVT 25345.20867462  .00003467  00000+0  65062-3 0  9990", "line2": "2 32221  98.5656 135.0818 0146742 150.4264 210.5335 14.58686157971752"}}, "geometry": {"type": "Point", "coordinates": [-44.43551705393854, -0.7839504300652759]}}, {"type": "Feature", "properties": {"norad_id": 32223, "name": "FENGYUN 1C DEB", "group": "fengyun-1c-debris", "lat": -16.197920746417257, "lon": -117.73557834006616, "alt_km": 845.8869552877195, "timestamp": "2025-12-11T18:59:46.359583+00:00", "meta": {"OBJECT_NAME": "FENGYUN 1C DEB", "OBJECT_ID": "1999-025CVV", "EPOCH": "2025-12-10T11:44:02.248224", "MEAN_MOTION": 14.20875166, "ECCENTRICITY": 0.00467544, "INCLINATION": 98.8382, "RA_OF_ASC_NODE": 63.5524, "ARG_OF_PERICENTER": 324.1245, "MEAN_ANOMALY": 53.3561, "EPHEMERIS_TYPE": 0, "CLASSIFICATION_TYPE": "U", "NORAD_CAT_ID": 32223, "ELEMENT_SET_NO": 999, "REV_AT_EPOCH": 64192, "BSTAR": 0.0019230809, "MEAN_MOTION_DOT": 4.162e-05, "MEAN_MOTION_DDOT": 0}, "tle": {"line1": "1 32223U 99025CVV 25344.48891491  .00004162  00000+0  19231-2 0  9999", "line2": "2 32223  98.8382  63.5524 0046754 324.1245  53.3561 14.20875166641929"}}, "geometry": {"type": "Point", "coordinates": [-117.73557834006616, -16.197920746417257]}}, {"type": "Feature", "properties": {"norad_id": 32224, "name": "FENGYUN 1C DEB", "group": "fengyun-1c-debris", "lat": -78.91207970227295, "lon": 62.93714657046431, "alt_km": 839.1453853939884, "timestamp": "2025-12-11T18:59:46.359596+00:00", "meta": {"OBJECT_NAME": "FENGYUN 1C DEB", "OBJECT_ID": "1999-025CVW", "EPOCH": "2025-12-10T20:00:16.997184", "MEAN_MOTION": 14.34016256, "ECCENTRICITY": 0.00771735, "INCLINATION": 98.984, "RA_OF_ASC_NODE": 295.7709, "ARG_OF_PERICENTER": 71.9886, "MEAN_ANOMALY": 288.9688, "EPHEMERIS_TYPE": 0, "CLASSIFICATION_TYPE": "U", "NORAD_CAT_ID": 32224, "ELEMENT_SET_NO": 999, "REV_AT_EPOCH": 95696, "BSTAR": 0.00051497603, "MEAN_MOTION_DOT": 1.44e-05, "MEAN_MOTION_DDOT": 0}, "tle": {"line1": "1 32224U 99025CVW 25344.83353006  .00001440  00000+0  51498-3 0  9992", "line2": "2 32224  98.9840 295.7709 0077173  71.9886 288.9688 14.34016256956962"}}, "geometry": {"type": "Point", "coordinates": [62.93714657046431, -78.91207970227295]}}]}